start=new Date('2023-01-07T00:00:00.000Z').valueOf();
sats=[{"APOAPSIS":"547.939","NORAD_CAT_ID":"46033","TIME_SYSTEM":"UTC","REF_FRAME":"TEME","PERIAPSIS":"546.601","LAUNCH_DATE":"2020-08-07","PERIOD":"95.593","RA_OF_ASC_NODE":"284.6666","COUNTRY_CODE":"US","REV_AT_EPOCH":"13434","INCLINATION":"53.0533","FILE":"3734255","OBJECT_ID":"2020-055G","OBJECT_TYPE":"PAYLOAD","SITE":"AFETR","MEAN_MOTION":"15.06381485","DECAY_DATE":null,"MEAN_MOTION_DDOT":"0.0000000000000","TLE_LINE1":"1 46033U 20055G   23006.78369908 -.00006743  00000-0 -43448-3 0  9997","MEAN_MOTION_DOT":"-0.00006743","EPHEMERIS_TYPE":"0","TLE_LINE2":"2 46033  53.0533 284.6666 0000966  69.0545 291.0548 15.06381485134340","RCS_SIZE":"LARGE","MEAN_ELEMENT_THEORY":"SGP4","ARG_OF_PERICENTER":"69.0545","BSTAR":"-0.00043448000000","CENTER_NAME":"EARTH","SEMIMAJOR_AXIS":"6925.405","OBJECT_NAME":"STARLINK-1556","MEAN_ANOMALY":"291.0548","GP_ID":"222340122","EPOCH":"2023-01-06T18:48:31.600512","ECCENTRICITY":"0.00009660","ELEMENT_SET_NO":"999","CLASSIFICATION_TYPE":"U"},{"CLASSIFICATION_TYPE":"U","ELEMENT_SET_NO":"999","ECCENTRICITY":"0.00018970","EPOCH":"2023-01-06T18:53:50.254080","GP_ID":"222340372","MEAN_ANOMALY":"310.9537","OBJECT_NAME":"STARLINK-1557","SEMIMAJOR_AXIS":"6925.398","CENTER_NAME":"EARTH","BSTAR":"0.00022219000000","ARG_OF_PERICENTER":"49.1616","MEAN_ELEMENT_THEORY":"SGP4","RCS_SIZE":"LARGE","TLE_LINE2":"2 46034  53.0557 284.6406 0001897  49.1616 310.9537 15.06383992134345","EPHEMERIS_TYPE":"0","MEAN_MOTION_DOT":"0.00003028","MEAN_MOTION_DDOT":"0.0000000000000","TLE_LINE1":"1 46034U 20055H   23006.78738720  .00003028  00000-0  22219-3 0  9994","DECAY_DATE":null,"SITE":"AFETR","MEAN_MOTION":"15.06383992","OBJECT_TYPE":"PAYLOAD","OBJECT_ID":"2020-055H","FILE":"3734255","INCLINATION":"53.0557","REV_AT_EPOCH":"13434","COUNTRY_CODE":"US","RA_OF_ASC_NODE":"284.6406","PERIOD":"95.593","LAUNCH_DATE":"2020-08-07","PERIAPSIS":"545.949","REF_FRAME":"TEME","TIME_SYSTEM":"UTC","NORAD_CAT_ID":"46034","APOAPSIS":"548.576"},{"GP_ID":"222340624","MEAN_ANOMALY":"304.0883","CLASSIFICATION_TYPE":"U","ELEMENT_SET_NO":"999","ECCENTRICITY":"0.00018230","EPOCH":"2023-01-06T19:04:27.234624","BSTAR":"-0.00034242000000","OBJECT_NAME":"STARLINK-1558","SEMIMAJOR_AXIS":"6925.401","CENTER_NAME":"EARTH","MEAN_MOTION_DOT":"-0.00005376","MEAN_MOTION_DDOT":"0.0000000000000","TLE_LINE1":"1 46035U 20055J   23006.79475966 -.00005376  00000-0 -34242-3 0  9995","ARG_OF_PERICENTER":"56.0279","MEAN_ELEMENT_THEORY":"SGP4","RCS_SIZE":"LARGE","TLE_LINE2":"2 46035  53.0558 284.6062 0001823  56.0279 304.0883 15.06382741134378","EPHEMERIS_TYPE":"0","RA_OF_ASC_NODE":"284.6062","LAUNCH_DATE":"2020-08-07","PERIOD":"95.593","PERIAPSIS":"546.004","REF_FRAME":"TEME","TIME_SYSTEM":"UTC","NORAD_CAT_ID":"46035","APOAPSIS":"548.529","DECAY_DATE":null,"OBJECT_TYPE":"PAYLOAD","SITE":"AFETR","MEAN_MOTION":"15.06382741","OBJECT_ID":"2020-055J","FILE":"3734255","INCLINATION":"53.0558","REV_AT_EPOCH":"13437","COUNTRY_CODE":"US"},{"OBJECT_NAME":"STARLINK-1560","SEMIMAJOR_AXIS":"6925.403","CENTER_NAME":"EARTH","BSTAR":"-0.00024765000000","CLASSIFICATION_TYPE":"U","ELEMENT_SET_NO":"999","ECCENTRICITY":"0.00017970","EPOCH":"2023-01-06T18:43:13.080000","GP_ID":"222341373","MEAN_ANOMALY":"302.2969","DECAY_DATE":null,"SITE":"AFETR","OBJECT_TYPE":"PAYLOAD","MEAN_MOTION":"15.06382257","OBJECT_ID":"2020-055K","FILE":"3734255","INCLINATION":"53.0533","COUNTRY_CODE":"US","REV_AT_EPOCH":"13437","RA_OF_ASC_NODE":"284.6850","LAUNCH_DATE":"2020-08-07","PERIOD":"95.593","PERIAPSIS":"546.023","REF_FRAME":"TEME","TIME_SYSTEM":"UTC","NORAD_CAT_ID":"46036","APOAPSIS":"548.512","ARG_OF_PERICENTER":"57.8194","MEAN_ELEMENT_THEORY":"SGP4","RCS_SIZE":"LARGE","TLE_LINE2":"2 46036  53.0533 284.6850 0001797  57.8194 302.2969 15.06382257134379","EPHEMERIS_TYPE":"0","MEAN_MOTION_DOT":"-0.00003967","MEAN_MOTION_DDOT":"0.0000000000000","TLE_LINE1":"1 46036U 20055K   23006.78001250 -.00003967  00000-0 -24765-3 0  9999"},{"BSTAR":"-0.00025763000000","CENTER_NAME":"EARTH","SEMIMAJOR_AXIS":"6925.359","OBJECT_NAME":"STARLINK-1565","MEAN_ANOMALY":"306.8792","GP_ID":"222339623","EPOCH":"2023-01-06T12:15:44.464320","ECCENTRICITY":"0.00014160","CLASSIFICATION_TYPE":"U","ELEMENT_SET_NO":"999","NORAD_CAT_ID":"46037","APOAPSIS":"548.204","TIME_SYSTEM":"UTC","PERIAPSIS":"546.243","REF_FRAME":"TEME","RA_OF_ASC_NODE":"285.8915","LAUNCH_DATE":"2020-08-07","PERIOD":"95.592","COUNTRY_CODE":"US","REV_AT_EPOCH":"13432","FILE":"3734255","INCLINATION":"53.0543","OBJECT_ID":"2020-055L","DECAY_DATE":null,"SITE":"AFETR","MEAN_MOTION":"15.06396736","OBJECT_TYPE":"PAYLOAD","MEAN_MOTION_DOT":"-0.00004116","TLE_LINE1":"1 46037U 20055L   23006.51093130 -.00004116  00000-0 -25763-3 0  9995","MEAN_MOTION_DDOT":"0.0000000000000","TLE_LINE2":"2 46037  53.0543 285.8915 0001416  53.2327 306.8792 15.06396736134328","EPHEMERIS_TYPE":"0","RCS_SIZE":"LARGE","MEAN_ELEMENT_THEORY":"SGP4","ARG_OF_PERICENTER":"53.2327"},{"CENTER_NAME":"EARTH","OBJECT_NAME":"STARLINK-1567","SEMIMAJOR_AXIS":"6925.295","BSTAR":"0.00006086100000","EPOCH":"2023-01-06T20:34:39.053280","ELEMENT_SET_NO":"999","CLASSIFICATION_TYPE":"U","ECCENTRICITY":"0.00017680","GP_ID":"222339873","MEAN_ANOMALY":"309.7841","INCLINATION":"53.0558","FILE":"3734255","COUNTRY_CODE":"US","REV_AT_EPOCH":"13437","OBJECT_TYPE":"PAYLOAD","SITE":"AFETR","MEAN_MOTION":"15.06417594","DECAY_DATE":null,"OBJECT_ID":"2020-055M","TIME_SYSTEM":"UTC","APOAPSIS":"548.384","NORAD_CAT_ID":"46038","LAUNCH_DATE":"2020-08-07","PERIOD":"95.591","RA_OF_ASC_NODE":"284.3238","REF_FRAME":"TEME","PERIAPSIS":"545.935","RCS_SIZE":"LARGE","EPHEMERIS_TYPE":"0","TLE_LINE2":"2 46038  53.0558 284.3238 0001768  50.3303 309.7841 15.06417594134377","ARG_OF_PERICENTER":"50.3303","MEAN_ELEMENT_THEORY":"SGP4","TLE_LINE1":"1 46038U 20055M   23006.85739645  .00000625  00000-0  60861-4 0  9999","MEAN_MOTION_DDOT":"0.0000000000000","MEAN_MOTION_DOT":"0.00000625"},{"SEMIMAJOR_AXIS":"6925.395","OBJECT_NAME":"STARLINK-1569","CENTER_NAME":"EARTH","BSTAR":"-0.00033780000000","ECCENTRICITY":"0.00018250","ELEMENT_SET_NO":"999","CLASSIFICATION_TYPE":"U","EPOCH":"2023-01-06T20:45:18.358848","MEAN_ANOMALY":"309.0096","GP_ID":"222341123","OBJECT_ID":"2020-055N","SITE":"AFETR","MEAN_MOTION":"15.06384762","OBJECT_TYPE":"PAYLOAD","DECAY_DATE":null,"COUNTRY_CODE":"US","REV_AT_EPOCH":"13437","INCLINATION":"53.0553","FILE":"3734255","REF_FRAME":"TEME","PERIAPSIS":"545.996","LAUNCH_DATE":"2020-08-07","PERIOD":"95.593","RA_OF_ASC_NODE":"284.2891","APOAPSIS":"548.524","NORAD_CAT_ID":"46039","TIME_SYSTEM":"UTC","MEAN_ELEMENT_THEORY":"SGP4","ARG_OF_PERICENTER":"51.1056","EPHEMERIS_TYPE":"0","TLE_LINE2":"2 46039  53.0553 284.2891 0001825  51.1056 309.0096 15.06384762134370","RCS_SIZE":"LARGE","TLE_LINE1":"1 46039U 20055N   23006.86479582 -.00005307  00000-0 -33780-3 0  9995","MEAN_MOTION_DDOT":"0.0000000000000","MEAN_MOTION_DOT":"-0.00005307"},{"TIME_SYSTEM":"UTC","APOAPSIS":"548.256","NORAD_CAT_ID":"46040","LAUNCH_DATE":"2020-08-07","PERIOD":"95.593","RA_OF_ASC_NODE":"284.1620","REF_FRAME":"TEME","PERIAPSIS":"546.256","INCLINATION":"53.0558","FILE":"3734255","REV_AT_EPOCH":"13434","COUNTRY_CODE":"US","SITE":"AFETR","MEAN_MOTION":"15.06386055","OBJECT_TYPE":"PAYLOAD","DECAY_DATE":null,"OBJECT_ID":"2020-055P","MEAN_MOTION_DDOT":"0.0000000000000","TLE_LINE1":"1 46040U 20055P   23006.89427581  .00006784  00000-0  47407-3 0  9991","MEAN_MOTION_DOT":"0.00006784","RCS_SIZE":"LARGE","EPHEMERIS_TYPE":"0","TLE_LINE2":"2 46040  53.0558 284.1620 0001444 111.7535 248.3608 15.06386055134346","ARG_OF_PERICENTER":"111.7535","MEAN_ELEMENT_THEORY":"SGP4","BSTAR":"0.00047407000000","CENTER_NAME":"EARTH","OBJECT_NAME":"STARLINK-1576","SEMIMAJOR_AXIS":"6925.391","GP_ID":"222340874","MEAN_ANOMALY":"248.3608","EPOCH":"2023-01-06T21:27:45.429984","ELEMENT_SET_NO":"999","CLASSIFICATION_TYPE":"U","ECCENTRICITY":"0.00014440"},{"TIME_SYSTEM":"UTC","NORAD_CAT_ID":"46041","APOAPSIS":"548.372","RA_OF_ASC_NODE":"285.9829","LAUNCH_DATE":"2020-08-07","PERIOD":"95.592","PERIAPSIS":"546.016","REF_FRAME":"TEME","FILE":"3734255","INCLINATION":"53.0543","COUNTRY_CODE":"US","REV_AT_EPOCH":"13429","DECAY_DATE":null,"OBJECT_TYPE":"PAYLOAD","SITE":"AFETR","MEAN_MOTION":"15.06406486","OBJECT_ID":"2020-055Q","MEAN_MOTION_DOT":"0.00014763","TLE_LINE1":"1 46041U 20055Q   23006.50728656  .00014763  00000-0  10077-2 0  9995","MEAN_MOTION_DDOT":"0.0000000000000","RCS_SIZE":"LARGE","TLE_LINE2":"2 46041  53.0543 285.9829 0001701  63.8746 296.2418 15.06406486134294","EPHEMERIS_TYPE":"0","ARG_OF_PERICENTER":"63.8746","MEAN_ELEMENT_THEORY":"SGP4","BSTAR":"0.00100770000000","CENTER_NAME":"EARTH","OBJECT_NAME":"STARLINK-1580","SEMIMAJOR_AXIS":"6925.329","GP_ID":"222340123","MEAN_ANOMALY":"296.2418","EPOCH":"2023-01-06T12:10:29.558784","CLASSIFICATION_TYPE":"U","ELEMENT_SET_NO":"999","ECCENTRICITY":"0.00017010"},{"MEAN_ANOMALY":"293.9627","GP_ID":"222340373","EPOCH":"2023-01-06T19:30:59.737824","ECCENTRICITY":"0.00016080","ELEMENT_SET_NO":"999","CLASSIFICATION_TYPE":"U","BSTAR":"-0.00024071000000","CENTER_NAME":"EARTH","SEMIMAJOR_AXIS":"6925.400","OBJECT_NAME":"STARLINK-1581","MEAN_MOTION_DDOT":"0.0000000000000","TLE_LINE1":"1 46042U 20055R   23006.81319141 -.00003863  00000-0 -24071-3 0  9996","MEAN_MOTION_DOT":"-0.00003863","EPHEMERIS_TYPE":"0","TLE_LINE2":"2 46042  53.0547 284.5371 0001608  66.1530 293.9627 15.06383064134336","RCS_SIZE":"LARGE","MEAN_ELEMENT_THEORY":"SGP4","ARG_OF_PERICENTER":"66.1530","APOAPSIS":"548.379","NORAD_CAT_ID":"46042","TIME_SYSTEM":"UTC","REF_FRAME":"TEME","PERIAPSIS":"546.152","LAUNCH_DATE":"2020-08-07","PERIOD":"95.593","RA_OF_ASC_NODE":"284.5371","REV_AT_EPOCH":"13433","COUNTRY_CODE":"US","INCLINATION":"53.0547","FILE":"3734255","OBJECT_ID":"2020-055R","OBJECT_TYPE":"PAYLOAD","SITE":"AFETR","MEAN_MOTION":"15.06383064","DECAY_DATE":null}];
